KUIPER-00165            
1 65778U 25217S   25293.61766325  .00067130  00000+0  18467-2 0  9991
2 65778  51.8716 321.2170 0003967 140.7725 219.3549 15.36551919  3876
KUIPER-00166            
1 65779U 25217T   25293.61267914  .00076065  00000+0  20675-2 0  9993
2 65779  51.8728 321.1848 0003673 112.6842 247.4533 15.36869590  3875
KUIPER-00167            
1 65780U 25217U   25293.56528452  .00024171  00000+0  69286-3 0  9999
2 65780  51.8686 321.6115 0005641 183.8002 176.2942 15.35754139  3860
KUIPER-00168            
1 65781U 25217V   25293.60149443  .00049876  00000+0  13359-2 0  9992
2 65781  51.8738 321.1118 0002536  63.2354 296.8892 15.37517670  3871
KUIPER-00169            
1 65782U 25217W   25293.54918618  .00024482  00000+0  67984-3 0  9994
2 65782  51.8731 321.5086 0002997 141.6994 218.4206 15.36748668  3865
KUIPER-00170            
1 65783U 25217X   25293.49862408  .00053138  00000+0  14995-2 0  9997
2 65783  51.8675 321.9135 0006161 176.0344 184.0692 15.35852752  3855
KUIPER-00171            
1 65784U 25217Y   25293.55504606  .00032766  00000+0  91428-3 0  9999
2 65784  51.8688 321.5453 0004204 165.8776 194.2329 15.36436816  3861
KUIPER-00172            
1 65785U 25217Z   25293.60743003  .00045699  00000+0  12391-2 0  9992
2 65785  51.8739 321.1505 0002759 106.0080 254.1211 15.37176713  3876
KUIPER-00173            
1 65786U 25217AA  25293.48102111  .00049354  00000+0  13465-2 0  9993
2 65786  51.8722 321.8039 0002597 121.5023 238.6217 15.36951303  3853
KUIPER-00174            
1 65787U 25217AB  25293.60322240  .00045934  00000+0  12378-2 0  9997
2 65787  51.8737 321.1213 0003016  75.7284 284.4037 15.37364373  3870
KUIPER-00176            
1 65788U 25217AC  25293.54209707  .00025665  00000+0  70331-3 0  9996
2 65788  51.8731 321.4635 0002154  84.7828 275.3405 15.37135471  3864
